{
  "type": "FeatureCollection",
  "features": [
    {
      "type": "Feature",
      "properties": {
        "norad_id": 54741,
        "name": "GALAXY 35 (G-35)",
        "group": "intelsat",
        "lat": -0.01737921834548863,
        "lon": -11.306312600304643,
        "alt_km": 35784.24718207982,
        "timestamp": "2025-12-18T23:35:48.715431+00:00",
        "meta_object_name": "GALAXY 35 (G-35)",
        "meta_object_id": "2022-170A",
        "meta_epoch": "2025-12-18T14:33:26.923104",
        "meta_mean_motion": 1.00270909,
        "meta_eccentricity": 0.00021438,
        "meta_inclination": 0.0202,
        "meta_ra_of_asc_node": 29.8843,
        "meta_arg_of_pericenter": 242.2502,
        "meta_mean_anomaly": 300.5856,
        "meta_ephemeris_type": 0,
        "meta_classification_type": "U",
        "meta_norad_cat_id": 54741,
        "meta_element_set_no": 999,
        "meta_rev_at_epoch": 1108,
        "meta_bstar": 0,
        "meta_mean_motion_dot": 0,
        "meta_mean_motion_ddot": 0,
        "tle_line1": "1 54741U 22170A   25352.60656161  .00000000  00000+0  00000+0 0  9999",
        "tle_line2": "2 54741   0.0202  29.8843 0002143 242.2502 300.5856  1.00270909 11083"
      },
      "geometry": {
        "type": "Point",
        "coordinates": [
          -11.306312600304643,
          -0.01737921834548863
        ]
      }
    },
    {
      "type": "Feature",
      "properties": {
        "norad_id": 54742,
        "name": "GALAXY 36 (G-36)",
        "group": "intelsat",
        "lat": 0.01252001804429532,
        "lon": -7.2163572703722245,
        "alt_km": 35784.966081519386,
        "timestamp": "2025-12-18T23:35:48.715443+00:00",
        "meta_object_name": "GALAXY 36 (G-36)",
        "meta_object_id": "2022-170B",
        "meta_epoch": "2025-12-17T14:36:52.642368",
        "meta_mean_motion": 1.0027201,
        "meta_eccentricity": 2.709e-05,
        "meta_inclination": 0.0136,
        "meta_ra_of_asc_node": 286.7849,
        "meta_arg_of_pericenter": 61.0617,
        "meta_mean_anomaly": 228.8591,
        "meta_ephemeris_type": 0,
        "meta_classification_type": "U",
        "meta_norad_cat_id": 54742,
        "meta_element_set_no": 999,
        "meta_rev_at_epoch": 1095,
        "meta_bstar": 0,
        "meta_mean_motion_dot": -1.6e-06,
        "meta_mean_motion_ddot": 0,
        "tle_line1": "1 54742U 22170B   25351.60894262 -.00000160  00000+0  00000+0 0  9993",
        "tle_line2": "2 54742   0.0136 286.7849 0000270  61.0617 228.8591  1.00272010 10951"
      },
      "geometry": {
        "type": "Point",
        "coordinates": [
          -7.2163572703722245,
          0.01252001804429532
        ]
      }
    },
    {
      "type": "Feature",
      "properties": {
        "norad_id": 57493,
        "name": "GALAXY 37 (G-37)",
        "group": "intelsat",
        "lat": -0.011247079914120044,
        "lon": -45.19432043500683,
        "alt_km": 35779.36411848443,
        "timestamp": "2025-12-18T23:35:48.715455+00:00",
        "meta_object_name": "GALAXY 37 (G-37)",
        "meta_object_id": "2023-112A",
        "meta_epoch": "2025-12-17T22:59:40.004160",
        "meta_mean_motion": 1.00272187,
        "meta_eccentricity": 0.00020138,
        "meta_inclination": 0.0114,
        "meta_ra_of_asc_node": 322.1916,
        "meta_arg_of_pericenter": 312.6639,
        "meta_mean_anomaly": 29.8977,
        "meta_ephemeris_type": 0,
        "meta_classification_type": "U",
        "meta_norad_cat_id": 57493,
        "meta_element_set_no": 999,
        "meta_rev_at_epoch": 872,
        "meta_bstar": 0,
        "meta_mean_motion_dot": 7.3e-07,
        "meta_mean_motion_ddot": 0,
        "tle_line1": "1 57493U 23112A   25351.95810190  .00000073  00000+0  00000+0 0  9994",
        "tle_line2": "2 57493   0.0114 322.1916 0002013 312.6639  29.8977  1.00272187  8723"
      },
      "geometry": {
        "type": "Point",
        "coordinates": [
          -45.19432043500683,
          -0.011247079914120044
        ]
      }
    }
  ]
}